ONEWEB-0474             
1 51654U 22012AJ  24023.50135703  .00000694  00000+0  19516-2 0  9995
2 51654  87.8895 210.2128 0001751  99.0070 261.1256 13.10373036 95906
ONEWEB-0475             
1 51655U 22012AK  24023.45071122  .00000068  00000+0  14225-3 0  9992
2 51655  87.9224 180.0265 0001907 109.6828 250.4510 13.17648573 99650
ONEWEB-0490             
1 54113U 22138A   24023.29898154  .00000040  00000+0  68127-4 0  9998
2 54113  87.9201 119.3314 0001935 104.4748 255.6599 13.19725636 62171
ONEWEB-0492             
1 54114U 22138B   24022.79353317  .00000071  00000+0  14484-3 0  9990
2 54114  87.9205 119.4270 0002116 103.9417 256.1951 13.19724308 61247
ONEWEB-0495             
1 54115U 22138C   24022.77142016  .00000047  00000+0  86264-4 0  9990
2 54115  87.9206 119.4428 0002187 111.0548 249.0819 13.19723890 61224
ONEWEB-0497             
1 54116U 22138D   24022.78406016  .00000035  00000+0  55085-4 0  9999
2 54116  87.9201 119.4348 0001899 104.1577 255.9767 13.19724006 61212
ONEWEB-0499             
1 54117U 22138E   24023.29739763  .00000093  00000+0  19931-3 0  9998
2 54117  87.9206 119.3275 0001837 125.0303 235.1002 13.19725720 62168
ONEWEB-0500             
1 54118U 22138F   24023.30057008  .00000090  00000+0  19262-3 0  9990
2 54118  87.9202 119.3274 0001897 102.8102 257.3242 13.19724773 62170
